NORAD_CAT_ID,OBJECT_NAME,OBJECT_TYPE,EPOCH,MEAN_MOTION,ECCENTRICITY,INCLINATION,RA_OF_ASC_NODE,ARG_OF_PERICENTER,MEAN_ANOMALY,BSTAR,MEAN_MOTION_DOT,MEAN_MOTION_DDOT,TLE_LINE0,TLE_LINE1,TLE_LINE2,SEMIMAJOR_AXIS,PERIOD,APOGEE,PERIGEE,DECAYED
49409.0,STARLINK-3075,PAYLOAD,2023-01-17 04:24:26,15.08833677,0.000101,53.2155,340.4851,118.7033,241.4061,0.0020068,0.00031789,0.0,0 STARLINK-3075,1 49409U 21104B   23017.18364219  .00031789  00000-0  20068-2 0  9997,2 49409  53.2155 340.4851 0001010 118.7033 241.4061 15.08833677 66489,6917.9,95.438,540.4630000000001,539.066,0.0
49409.0,STARLINK-3075,PAYLOAD,2023-01-17 13:56:45,15.08824312,0.0001335,53.216,338.6998,108.1506,251.9632,0.0011207,0.00017585,0.0,0 STARLINK-3075,1 49409U 21104B   23017.58108646  .00017585  00000-0  11207-2 0  9994,2 49409  53.2160 338.6998 0001335 108.1506 251.9632 15.08824312 66547,6917.928000000001,95.439,540.717,538.87,0.0
49409.0,STARLINK-3075,PAYLOAD,2023-01-18 13:47:33,15.08853772,0.0001416,53.2164,334.2417,105.9455,254.1693,0.0012101,0.0001903,0.0,0 STARLINK-3075,1 49409U 21104B   23018.57469108  .00019030  00000-0  12101-2 0  9998,2 49409  53.2164 334.2417 0001416 105.9455 254.1693 15.08853772 66697,6917.838000000001,95.437,540.683,538.724,0.0
49409.0,STARLINK-3075,PAYLOAD,2023-01-19 07:16:46,15.08885304,0.0001431999999999,53.2152,330.9685,100.1467,259.9686,0.0013709,0.00021624,0.0,0 STARLINK-3075,1 49409U 21104B   23019.30331664  .00021624  00000-0  13709-2 0  9992,2 49409  53.2152 330.9685 0001432 100.1467 259.9686 15.08885304 65726,6917.741999999999,95.435,540.5980000000001,538.616,0.0
49409.0,STARLINK-3075,PAYLOAD,2023-01-20 10:18:21,15.08824982,5.18e-05,53.2155,325.9148,118.3096,241.7948,0.00087835,0.00013713,0.0,0 STARLINK-3075,1 49409U 21104B   23020.42941245  .00013713  00000-0  87835-3 0  9991,2 49409  53.2155 325.9148 0000518 118.3096 241.7948 15.08824982 66973,6917.926,95.439,540.15,539.433,0.0
49409.0,STARLINK-3075,PAYLOAD,2023-01-21 05:22:59,15.08849982,0.0001254,53.2148,322.3462,87.0389,273.0747,0.0019248,0.00030486,0.0,0 STARLINK-3075,1 49409U 21104B   23021.22429450  .00030486  00000-0  19248-2 0  9997,2 49409  53.2148 322.3462 0001254  87.0389 273.0747 15.08849982 67096,6917.85,95.437,540.582,538.847,0.0
49409.0,STARLINK-3075,PAYLOAD,2023-01-22 02:03:00,15.08849858,0.0001575999999999,53.2162,318.4799,74.1321,285.9844,0.00053374,8.219e-05,0.0,0 STARLINK-3075,1 49409U 21104B   23022.08541731  .00008219  00000-0  53374-3 0  9997,2 49409  53.2162 318.4799 0001576  74.1321 285.9844 15.08849858 67228,6917.85,95.437,540.806,538.625,0.0
49409.0,STARLINK-3075,PAYLOAD,2023-01-23 05:04:32,15.08858986,0.0001865999999999,53.2161,313.4229,111.3953,248.7238,0.00092206,0.00014425,0.0,0 STARLINK-3075,1 49409U 21104B   23023.21149286  .00014425  00000-0  92206-3 0  9995,2 49409  53.2161 313.4229 0001866 111.3953 248.7238 15.08858986 67391,6917.821999999999,95.436,540.9780000000001,538.396,0.0
49409.0,STARLINK-3075,PAYLOAD,2023-01-23 19:23:01,15.08843143,0.0001724,53.2157,310.7479,100.2275,259.8911,0.0005023,7.716e-05,0.0,0 STARLINK-3075,1 49409U 21104B   23023.80765739  .00007716  00000-0  50230-3 0  9993,2 49409  53.2157 310.7479 0001724 100.2275 259.8911 15.08843143 67480,6917.871,95.437,540.928,538.543,0.0
49409.0,STARLINK-3075,PAYLOAD,2023-01-24 04:55:20,15.08856937,0.0001439,53.2155,308.9624,109.7276,250.3871,0.001139,0.00017894,0.0,0 STARLINK-3075,1 49409U 21104B   23024.20509533  .00017894  00000-0  11390-2 0  9997,2 49409  53.2155 308.9624 0001439 109.7276 250.3871 15.08856937 67540,6917.829000000001,95.436,540.689,538.698,0.0
49409.0,STARLINK-3075,PAYLOAD,2023-01-25 03:10:44,15.08849938,0.0001315,53.2155,304.7998,89.3758,270.7385,0.00094187,0.00014738,0.0,0 STARLINK-3075,1 49409U 21104B   23025.13245844  .00014738  00000-0  94187-3 0  9992,2 49409  53.2155 304.7998 0001315  89.3758 270.7385 15.08849938 67683,6917.85,95.437,540.625,538.805,0.0
49409.0,STARLINK-3075,PAYLOAD,2023-01-25 11:07:40,15.08847707,0.0001399,53.2156,303.3123,71.12899999999999,288.9854,0.00048658,7.466e-05,0.0,0 STARLINK-3075,1 49409U 21104B   23025.46365810  .00007466  00000-0  48658-3 0  9996,2 49409  53.2156 303.3123 0001399  71.1290 288.9854 15.08847707 67731,6917.857,95.437,540.69,538.754,0.0
49409.0,STARLINK-3075,PAYLOAD,2023-01-26 03:01:31,15.08845946,0.0001266,53.2153,300.3412,88.3585,271.7552,0.00030954,4.643e-05,0.0,0 STARLINK-3075,1 49409U 21104B   23026.12605849  .00004643  00000-0  30954-3 0  9993,2 49409  53.2153 300.3412 0001266  88.3585 271.7552 15.08845946 67835,6917.861999999999,95.437,540.6030000000001,538.851,0.0
49409.0,STARLINK-3075,PAYLOAD,2023-01-26 22:06:09,15.08842299,0.0001193,53.2145,296.7715,75.3206,284.7919,0.00011101,1.479e-05,0.0,0 STARLINK-3075,1 49409U 21104B   23026.92093885  .00001479  00000-0  11101-3 0  9999,2 49409  53.2145 296.7715 0001193  75.3206 284.7919 15.08842299 67957,6917.8730000000005,95.437,540.564,538.913,0.0
49409.0,STARLINK-3075,PAYLOAD,2023-01-27 02:52:18,15.08853993,0.0001384,53.2147,295.8791,78.4588,281.656,0.00031671,4.758e-05,0.0,0 STARLINK-3075,1 49409U 21104B   23027.11965501  .00004758  00000-0  31671-3 0  9991,2 49409  53.2147 295.8791 0001384  78.4588 281.6560 15.08853993 67986,6917.838000000001,95.437,540.66,538.745,0.0
49409.0,STARLINK-3075,PAYLOAD,2023-01-28 02:43:05,15.08838391,0.0001336,53.2137,291.4176,75.9337,284.1804,3.7233e-05,3.05e-06,0.0,0 STARLINK-3075,1 49409U 21104B   23028.11326230  .00000305  00000-0  37233-4 0  9997,2 49409  53.2137 291.4176 0001336  75.9337 284.1804 15.08838391 68137,6917.885,95.438,540.675,538.826,0.0
49409.0,STARLINK-3075,PAYLOAD,2023-01-28 21:47:43,15.08846248,0.0001399,53.2131,287.8509,72.0602,288.0543,0.00019926,2.885e-05,0.0,0 STARLINK-3075,1 49409U 21104B   23028.90814184  .00002885  00000-0  19926-3 0  9997,2 49409  53.2131 287.8509 0001399  72.0602 288.0543 15.08846248 67178,6917.861,95.437,540.694,538.758,0.0
49409.0,STARLINK-3075,PAYLOAD,2023-01-29 02:33:52,15.08853079,0.0001317,53.2128,286.9571,79.4249,280.6891,0.00035237,5.326e-05,0.0,0 STARLINK-3075,1 49409U 21104B   23029.10685880  .00005326  00000-0  35237-3 0  9995,2 49409  53.2128 286.9571 0001317  79.4249 280.6891 15.08853079 68288,6917.84,95.437,540.616,538.794,0.0
49409.0,STARLINK-3075,PAYLOAD,2023-01-29 16:52:22,15.08823193,0.0001371,53.2124,284.2817,76.1095,284.005,-0.00014572,-2.605e-05,0.0,0 STARLINK-3075,1 49409U 21104B   23029.70303450 -.00002605  00000-0 -14572-3 0  9999,2 49409  53.2124 284.2817 0001371  76.1095 284.0050 15.08823193 68370,6917.932,95.439,540.745,538.848,0.0
49409.0,STARLINK-3075,PAYLOAD,2023-01-29 20:03:08,15.0882247,0.0001369,53.2129,283.6868,78.9578,281.1569,-0.00013094,-2.37e-05,0.0,0 STARLINK-3075,1 49409U 21104B   23029.83551641 -.00002370  00000-0 -13094-3 0  9997,2 49409  53.2129 283.6868 0001369  78.9578 281.1569 15.08822470 67310,6917.934,95.439,540.746,538.852,0.0
49409.0,STARLINK-3075,PAYLOAD,2023-01-30 11:57:00,15.08837757,0.0001346,53.2133,280.7127,79.464,280.6504,0.00036252,5.486e-05,0.0,0 STARLINK-3075,1 49409U 21104B   23030.49791876  .00005486  00000-0  36252-3 0  9997,2 49409  53.2133 280.7127 0001346  79.4640 280.6504 15.08837757 68499,6917.887,95.438,540.683,538.821,0.0
49409.0,STARLINK-3075,PAYLOAD,2023-01-30 21:29:18,15.08852965,0.0001339,53.2136,278.9283,80.7754,279.3389,0.0010473,0.00016425,0.0,0 STARLINK-3075,1 49409U 21104B   23030.89535862  .00016425  00000-0  10473-2 0  9993,2 49409  53.2136 278.9283 0001339  80.7754 279.3389 15.08852965 67478,6917.841,95.437,540.632,538.779,0.0
49409.0,STARLINK-3075,PAYLOAD,2023-01-30 23:04:42,15.08855916,0.0001338,53.2136,278.631,80.4876,279.6267,0.0010816,0.00016975,0.0,0 STARLINK-3075,1 49409U 21104B   23030.96159792  .00016975  00000-0  10816-2 0  9996,2 49409  53.2136 278.6310 0001338  80.4876 279.6267 15.08855916 68565,6917.832,95.437,540.622,538.771,0.0
49409.0,STARLINK-3075,PAYLOAD,2023-01-31 13:23:09,15.08863635,0.0001348,53.2136,275.9545,81.1716,278.9429,0.00063603,9.855e-05,0.0,0 STARLINK-3075,1 49409U 21104B   23031.55775064  .00009855  00000-0  63603-3 0  9990,2 49409  53.2136 275.9545 0001348  81.1716 278.9429 15.08863635 67576,6917.808,95.436,540.606,538.741,0.0
49409.0,STARLINK-3075,PAYLOAD,2023-01-31 18:09:18,15.08864656,0.0001406,53.2135,275.0624,83.3234,276.7918,0.00051188,7.873e-05,0.0,0 STARLINK-3075,1 49409U 21104B   23031.75646776  .00007873  00000-0  51188-3 0  9992,2 49409  53.2135 275.0624 0001406  83.3234 276.7918 15.08864656 68684,6917.805,95.436,540.643,538.697,0.0
49409.0,STARLINK-3075,PAYLOAD,2023-01-31 19:44:41,15.08866086,0.0001407,53.2134,274.7649,83.6214,276.4938,0.0005355,8.251e-05,0.0,0 STARLINK-3075,1 49409U 21104B   23031.82270657  .00008251  00000-0  53550-3 0  9997,2 49409  53.2134 274.7649 0001407  83.6214 276.4938 15.08866086 67618,6917.801,95.436,540.639,538.692,0.0
49409.0,STARLINK-3075,PAYLOAD,2023-02-01 00:30:50,15.0887272,0.0001407,53.2134,273.8724,85.9145,274.2008,0.00070292,0.00010927,0.0,0 STARLINK-3075,1 49409U 21104B   23032.02142211  .00010927  00000-0  70292-3 0  9999,2 49409  53.2134 273.8724 0001407  85.9145 274.2008 15.08872720 67649,6917.78,95.435,540.619,538.672,0.0
49409.0,STARLINK-3075,PAYLOAD,2023-02-02 01:57:00,15.08851162,0.0001422,53.2131,269.1146,97.6409,262.4745,0.00013215,1.816e-05,0.0,0 STARLINK-3075,1 49409U 21104B   23033.08125957  .00001816  00000-0  13215-3 0  9993,2 49409  53.2131 269.1146 0001422  97.6409 262.4745 15.08851162 68883,6917.846,95.437,540.695,538.728,0.0
49409.0,STARLINK-3075,PAYLOAD,2023-02-02 22:37:01,15.08845009,0.0001568,53.2125,265.2486,100.6558,259.4611,3.7624e-05,3.11e-06,0.0,0 STARLINK-3075,1 49409U 21104B   23033.94237998  .00000311  00000-0  37624-4 0  9997,2 49409  53.2125 265.2486 0001568 100.6558 259.4611 15.08845009 69018,6917.865,95.437,540.815,538.645,0.0
